ORBCOMM FM115 [+]       
1 41186U 15081H   23332.78132049  .00001579  00000+0  36029-3 0  9996
2 41186  46.9983 208.1162 0000915 317.8063  42.2753 14.60138220424936
ORBCOMM FM108 [+]       
1 41187U 15081J   23332.84920419  .00002383  00000+0  57275-3 0  9990
2 41187  47.0044 256.9683 0002636 246.6507 113.4101 14.56083656424205
ORBCOMM FM117 [+]       
1 41188U 15081K   23333.15808389  .00002296  00000+0  55340-3 0  9991
2 41188  47.0004 254.4637 0003361 257.1453 102.9057 14.56085394424346
ORBCOMM FM116 [+]       
1 41189U 15081L   23333.07897770  .00002029  00000+0  49319-3 0  9998
2 41189  47.0026 344.6438 0002827 320.1573  39.9104 14.56097060423166
